STARLINK-3245           
1 50170U 21125Q   26105.33348728 -.00000292  00000+0 -24974-6 0  9992
2 50170  53.2164  84.6203 0001389  76.0566 284.0581 15.08836731242121
STARLINK-3286           
1 50171U 21125R   26106.20932601  .00000203  00000+0  30826-4 0  9990
2 50171  53.2173  80.6868 0001383  83.9014 276.2136 15.08839130242264
STARLINK-3287           
1 50172U 21125S   26106.18726362  .00000454  00000+0  46627-4 0  9997
2 50172  53.2166  80.7865 0001505  72.0289 288.0868 15.08836568242292
STARLINK-3289           
1 50173U 21125T   26106.28526670  .00011501  00000+0  68191-3 0  9993
2 50173  53.2149  69.6913 0002617  66.4351 293.6917 15.11804950242433
STARLINK-3292           
1 50174U 21125U   26106.28626121  .00000021  00000+0  19400-4 0  9991
2 50174  53.2165  75.9529 0001472  85.5215 274.5945 15.08834550242382
STARLINK-3291           
1 50175U 21125V   26106.19828735 -.00000100  00000+0  11796-4 0  9996
2 50175  53.2166  80.7371 0001402  86.9058 273.2094 15.08839503242267
STARLINK-3293           
1 50176U 21125W   26106.17988918 -.00000268  00000+0  12858-5 0  9991
2 50176  53.2172  80.8193 0001622  79.4490 280.6685 15.08840880242302
STARLINK-3282           
1 50177U 21125X   26106.19092851  .00000367  00000+0  41158-4 0  9999
2 50177  53.2173  80.7689 0001476  79.0651 281.0508 15.08839757242260
STARLINK-3283           
1 50179U 21125Z   26106.18356852 -.00001460  00000+0 -73693-4 0  9990
2 50179  53.2154  80.7994 0000658  99.5890 260.5176 15.08834698242265
STARLINK-3265           
1 50180U 21125AA  26106.23604983 -.00000230  00000+0  36593-5 0  9991
2 50180  53.2170  80.5763 0001228  51.4239 308.6863 15.08833030242317
STARLINK-3285           
1 50181U 21125AB  26106.22868235  .00000902  00000+0  74778-4 0  9994
2 50181  53.2175  80.6117 0001104  87.1885 272.9233 15.08838887242277
STARLINK-3277           
1 50182U 21125AC  26106.07314827 -.00000266  00000+0  13652-5 0  9990
2 50182  53.2170  81.1437 0001359  89.1942 270.9206 15.08838246242280
STARLINK-3281           
1 50183U 21125AD  26106.22406351  .00000364  00000+0  40967-4 0  9998
2 50183  53.2170  80.6220 0001211  79.1224 280.9904 15.08834292242311
STARLINK-3279           
1 50185U 21125AF  26106.23509819 -.00000134  00000+0  96667-5 0  9999
2 50185  53.2178  80.6097 0001446  76.2897 283.8256 15.08833715242273
STARLINK-3274           
1 50186U 21125AG  26106.24520601 -.00000329  00000+0 -25592-5 0  9999
2 50186  53.2159  90.5253 0001226  82.4707 277.6425 15.08835857242124
STARLINK-3272           
1 50187U 21125AH  26106.19480277  .00003855  00000+0  25299-3 0  9995
2 50187  53.2168  70.6260 0002744  66.4908 293.6372 15.09890237242384
STARLINK-3276           
1 50189U 21125AK  26106.28451474  .00003605  00000+0  21256-3 0  9996
2 50189  53.2144  78.3134 0000834 323.3980  36.6957 15.14019253242345
STARLINK-3268           
1 50190U 21125AL  26106.19550932  .00001701  00000+0  12492-3 0  9994
2 50190  53.2177  70.7494 0001815  82.5186 277.6013 15.08850415242391
STARLINK-3273           
1 50191U 21125AM  26106.27098574  .00000749  00000+0  65185-4 0  9992
2 50191  53.2158  90.4100 0001712  98.2223 261.8963 15.08828264242123
STARLINK-3259           
1 50192U 21125AN  26106.19186489  .00000145  00000+0  27213-4 0  9997
2 50192  53.2173  70.7664 0001564  85.3216 274.7955 15.08832845242394
STARLINK-3261           
1 50193U 21125AP  26106.20289267 -.00000001  00000+0  18023-4 0  9999
2 50193  53.2172  70.7169 0001416  86.9714 273.1440 15.08833455242446
STARLINK-3266           
1 50195U 21125AR  26106.19920966  .00000031  00000+0  20005-4 0  9992
2 50195  53.2170  70.7338 0001151  81.7335 278.3787 15.08835328242398
STARLINK-3267           
1 50197U 21125AT  26106.18448928 -.00000383  00000+0 -59909-5 0  9994
2 50197  53.2172  70.7969 0001337  93.2543 266.8603 15.08836902242441
STARLINK-3264           
1 50198U 21125AU  26106.16976390  .00000424  00000+0  44750-4 0  9993
2 50198  53.2171  70.8647 0001403  88.4152 271.7000 15.08840087242390
STARLINK-3270           
1 50199U 21125AV  26106.28384928  .00000542  00000+0  52115-4 0  9992
2 50199  53.2170  70.3519 0001452  83.8541 276.2617 15.08837968242408
STARLINK-3235           
1 50200U 21125AW  26106.17344137  .00000202  00000+0  30774-4 0  9991
2 50200  53.2177  70.8071 0001492  96.2541 263.8622 15.08839414242404
STARLINK-3255           
1 50201U 21125AX  26106.28270908  .00117980  00000+0  40714-3 0  9994
2 50201  53.1921 312.0548 0002893 202.9142 157.1756 15.88727307244073
STARLINK-3256           
1 50202U 21125AY  26106.28016724  .00000121  00000+0  25683-4 0  9996
2 50202  53.2164  70.3689 0001423  86.8063 273.3093 15.08837749242407
STARLINK-3257           
1 50203U 21125AZ  26106.11553311 -.00000397  00000+0 -68661-5 0  9998
2 50203  53.2168  71.1935 0001409  91.8432 268.2721 15.08839044242440
STARLINK-3254           
1 50204U 21125BA  26106.22226616  .00002822  00000+0  19537-3 0  9995
2 50204  53.2177  70.6387 0001231  75.3986 284.7143 15.08827307242451
