OBJECT_NAME,OBJECT_ID,EPOCH,MEAN_MOTION,ECCENTRICITY,INCLINATION,RA_OF_ASC_NODE,ARG_OF_PERICENTER,MEAN_ANOMALY,EPHEMERIS_TYPE,CLASSIFICATION_TYPE,NORAD_CAT_ID,ELEMENT_SET_NO,REV_AT_EPOCH,BSTAR,MEAN_MOTION_DOT,MEAN_MOTION_DDOT
STARLINK-3245,2021-125Q,2026-04-15T08:00:13.300992,15.08836731,0.00013891,53.2164,84.6203,76.0566,284.0581,0,U,50170,999,24212,-2.49736e-07,-2.92e-06,0.0
STARLINK-3286,2021-125R,2026-04-16T05:01:25.767264,15.0883913,0.00013837,53.2173,80.6868,83.9014,276.2136,0,U,50171,999,24226,3.082565e-05,2.03e-06,0.0
STARLINK-3287,2021-125S,2026-04-16T04:29:39.576768,15.08836568,0.00015052,53.2166,80.7865,72.0289,288.0868,0,U,50172,999,24229,4.6627182e-05,4.54e-06,0.0
STARLINK-3289,2021-125T,2026-04-16T06:50:47.042880,15.1180495,0.0002617,53.2149,69.6913,66.4351,293.6917,0,U,50173,999,24243,0.00068190701,0.00011501,0.0
STARLINK-3292,2021-125U,2026-04-16T06:52:12.968544,15.0883455,0.00014729,53.2165,75.9529,85.5215,274.5945,0,U,50174,999,24238,1.9400226e-05,2.1e-07,0.0
STARLINK-3291,2021-125V,2026-04-16T04:45:32.027040,15.08839503,0.0001402,53.2166,80.7371,86.9058,273.2094,0,U,50175,999,24226,1.1796483e-05,-1e-06,0.0
STARLINK-3293,2021-125W,2026-04-16T04:19:02.425152,15.0884088,0.00016227,53.2172,80.8193,79.449,280.6685,0,U,50176,999,24230,1.285782e-06,-2.68e-06,0.0
STARLINK-3282,2021-125X,2026-04-16T04:34:56.223264,15.08839757,0.00014769,53.2173,80.7689,79.0651,281.0508,0,U,50177,999,24226,4.1158147e-05,3.67e-06,0.0
STARLINK-3283,2021-125Z,2026-04-16T04:24:20.320128,15.08834698,6.588e-05,53.2154,80.7994,99.589,260.5176,0,U,50179,999,24226,-7.3693414e-05,-1.46e-05,0.0
STARLINK-3265,2021-125AA,2026-04-16T05:39:54.705312,15.0883303,0.00012283,53.217,80.5763,51.4239,308.6863,0,U,50180,999,24231,3.65932e-06,-2.3e-06,0.0
STARLINK-3285,2021-125AB,2026-04-16T05:29:18.155040,15.08838887,0.00011041,53.2175,80.6117,87.1885,272.9233,0,U,50181,999,24227,7.4778154e-05,9.02e-06,0.0
STARLINK-3277,2021-125AC,2026-04-16T01:45:20.010528,15.08838246,0.00013592,53.217,81.1437,89.1942,270.9206,0,U,50182,999,24228,1.365246e-06,-2.66e-06,0.0
STARLINK-3281,2021-125AD,2026-04-16T05:22:39.087264,15.08834292,0.00012112,53.217,80.622,79.1224,280.9904,0,U,50183,999,24231,4.0967321e-05,3.64e-06,0.0
STARLINK-3279,2021-125AF,2026-04-16T05:38:32.483616,15.08833715,0.0001446,53.2178,80.6097,76.2897,283.8256,0,U,50185,999,24227,9.666724e-06,-1.34e-06,0.0
STARLINK-3274,2021-125AG,2026-04-16T05:53:05.799264,15.08835857,0.00012267,53.2159,90.5253,82.4707,277.6425,0,U,50186,999,24212,-2.559249e-06,-3.29e-06,0.0
STARLINK-3272,2021-125AH,2026-04-16T04:40:30.959328,15.09890237,0.00027447,53.2168,70.626,66.4908,293.6372,0,U,50187,999,24238,0.00025298721,3.855e-05,0.0
STARLINK-3276,2021-125AK,2026-04-16T06:49:42.073536,15.14019253,8.344e-05,53.2144,78.3134,323.398,36.6957,0,U,50189,999,24234,0.00021255569,3.605e-05,0.0
STARLINK-3268,2021-125AL,2026-04-16T04:41:32.005248,15.08850415,0.00018156,53.2177,70.7494,82.5186,277.6013,0,U,50190,999,24239,0.0001249211,1.701e-05,0.0
STARLINK-3273,2021-125AM,2026-04-16T06:30:13.167936,15.08828264,0.00017125,53.2158,90.41,98.2223,261.8963,0,U,50191,999,24212,6.5184818e-05,7.49e-06,0.0
STARLINK-3259,2021-125AN,2026-04-16T04:36:17.126496,15.08832845,0.00015649,53.2173,70.7664,85.3216,274.7955,0,U,50192,999,24239,2.7212803e-05,1.45e-06,0.0
STARLINK-3261,2021-125AP,2026-04-16T04:52:09.926688,15.08833455,0.00014163,53.2172,70.7169,86.9714,273.144,0,U,50193,999,24244,1.8022518e-05,-1e-08,0.0
STARLINK-3266,2021-125AR,2026-04-16T04:46:51.714624,15.08835328,0.00011517,53.217,70.7338,81.7335,278.3787,0,U,50195,999,24239,2.000518e-05,3.1e-07,0.0
STARLINK-3267,2021-125AT,2026-04-16T04:25:39.873792,15.08836902,0.00013379,53.2172,70.7969,93.2543,266.8603,0,U,50197,999,24244,-5.990855e-06,-3.83e-06,0.0
STARLINK-3264,2021-125AU,2026-04-16T04:04:27.600960,15.08840087,0.00014035,53.2171,70.8647,88.4152,271.7,0,U,50198,999,24239,4.4749669e-05,4.24e-06,0.0
STARLINK-3270,2021-125AV,2026-04-16T06:48:44.577792,15.08837968,0.00014529,53.217,70.3519,83.8541,276.2617,0,U,50199,999,24240,5.2115255e-05,5.42e-06,0.0
STARLINK-3235,2021-125AW,2026-04-16T04:09:45.334368,15.08839414,0.00014921,53.2177,70.8071,96.2541,263.8622,0,U,50200,999,24240,3.0773725e-05,2.02e-06,0.0
STARLINK-3255,2021-125AX,2026-04-16T06:47:06.064512,15.88727307,0.00028935,53.1921,312.0548,202.9142,157.1756,0,U,50201,999,24407,0.00040713916,0.0011798,0.0
STARLINK-3256,2021-125AY,2026-04-16T06:43:26.449536,15.08837749,0.00014237,53.2164,70.3689,86.8063,273.3093,0,U,50202,999,24240,2.5683187e-05,1.21e-06,0.0
STARLINK-3257,2021-125AZ,2026-04-16T02:46:22.060704,15.08839044,0.00014093,53.2168,71.1935,91.8432,268.2721,0,U,50203,999,24244,-6.866062e-06,-3.97e-06,0.0
STARLINK-3254,2021-125BA,2026-04-16T05:20:03.796224,15.08827307,0.00012312,53.2177,70.6387,75.3986,284.7143,0,U,50204,999,24245,0.0001953714,2.822e-05,0.0
